STARLINK-30865          
1 58226U 23170W   23325.16667824 -.01637674  00000+0 -19006-1 0  9993
2 58226  43.0002  84.2947 0001970 270.7368 165.7279 15.64102943  3812
STARLINK-30874          
1 58227U 23170X   23325.16667824 -.01638249  00000+0 -19016-1 0  9994
2 58227  43.0001  84.2963 0001498 268.7146 167.1396 15.64104859  3810
STARLINK-30871          
1 58228U 23170Y   23325.16667824 -.01637852  00000+0 -19013-1 0  9991
2 58228  43.0002  84.2929 0001501 269.6849 167.3900 15.64101913  2730
STARLINK-30861          
1 58230U 23171A   23325.16667824 -.01510114  00000+0 -11635-1 0  9998
2 58230  43.0023 180.9179 0001859 276.7023 130.0565 15.74152106  3305
STARLINK-30867          
1 58231U 23171B   23325.16667824 -.01506565  00000+0 -11606-1 0  9992
2 58231  43.0025 180.9162 0001827 277.5075 129.8776 15.74148167  3303
STARLINK-30880          
1 58232U 23171C   23325.16667824 -.01498873  00000+0 -11544-1 0  9996
2 58232  43.0022 180.9142 0001485 279.9640 128.0482 15.74141198  3248
STARLINK-30777          
1 58233U 23171D   23324.91667824 -.00532754  00000+0 -38426-2 0  9994
2 58233  43.0022 182.4266 0001860 279.5940 151.4250 15.74102366  3213
STARLINK-30860          
1 58234U 23171E   23325.16667824 -.01503923  00000+0 -11588-1 0  9999
2 58234  43.0021 180.9127 0001230 290.5307 118.1028 15.74144834  3302
