{
	"ndm": {
		"omm": [
			{
				"header": {
					"CREATION_DATE": "",
					"ORIGINATOR": ""
				},
				"body": {
					"segment": {
						"metadata": {
							"OBJECT_NAME": "STARLINK-30865",
							"OBJECT_ID": "2023-170W",
							"CENTER_NAME": "EARTH",
							"REF_FRAME": "TEME",
							"TIME_SYSTEM": "UTC",
							"MEAN_ELEMENT_THEORY": "SGP4"
						},
						"data": {
							"meanElements": {
								"EPOCH": "2023-11-21T04:00:00.999936",
								"MEAN_MOTION": 15.64102943,
								"ECCENTRICITY": 0.000197,
								"INCLINATION": 43.0002,
								"RA_OF_ASC_NODE": 84.2947,
								"ARG_OF_PERICENTER": 270.7368,
								"MEAN_ANOMALY": 165.7279
							},
							"tleParameters": {
								"EPHEMERIS_TYPE": 0,
								"CLASSIFICATION_TYPE": "U",
								"NORAD_CAT_ID": 58226,
								"ELEMENT_SET_NO": 999,
								"REV_AT_EPOCH": 381,
								"BSTAR": -0.019006,
								"MEAN_MOTION_DOT": -0.01637674,
								"MEAN_MOTION_DDOT": 0
							}
						}
					}
				}
			},
			{
				"header": {
					"CREATION_DATE": "",
					"ORIGINATOR": ""
				},
				"body": {
					"segment": {
						"metadata": {
							"OBJECT_NAME": "STARLINK-30874",
							"OBJECT_ID": "2023-170X",
							"CENTER_NAME": "EARTH",
							"REF_FRAME": "TEME",
							"TIME_SYSTEM": "UTC",
							"MEAN_ELEMENT_THEORY": "SGP4"
						},
						"data": {
							"meanElements": {
								"EPOCH": "2023-11-21T04:00:00.999936",
								"MEAN_MOTION": 15.64104859,
								"ECCENTRICITY": 0.0001498,
								"INCLINATION": 43.0001,
								"RA_OF_ASC_NODE": 84.2963,
								"ARG_OF_PERICENTER": 268.7146,
								"MEAN_ANOMALY": 167.1396
							},
							"tleParameters": {
								"EPHEMERIS_TYPE": 0,
								"CLASSIFICATION_TYPE": "U",
								"NORAD_CAT_ID": 58227,
								"ELEMENT_SET_NO": 999,
								"REV_AT_EPOCH": 381,
								"BSTAR": -0.019016,
								"MEAN_MOTION_DOT": -0.01638249,
								"MEAN_MOTION_DDOT": 0
							}
						}
					}
				}
			},
			{
				"header": {
					"CREATION_DATE": "",
					"ORIGINATOR": ""
				},
				"body": {
					"segment": {
						"metadata": {
							"OBJECT_NAME": "STARLINK-30871",
							"OBJECT_ID": "2023-170Y",
							"CENTER_NAME": "EARTH",
							"REF_FRAME": "TEME",
							"TIME_SYSTEM": "UTC",
							"MEAN_ELEMENT_THEORY": "SGP4"
						},
						"data": {
							"meanElements": {
								"EPOCH": "2023-11-21T04:00:00.999936",
								"MEAN_MOTION": 15.64101913,
								"ECCENTRICITY": 0.0001501,
								"INCLINATION": 43.0002,
								"RA_OF_ASC_NODE": 84.2929,
								"ARG_OF_PERICENTER": 269.6849,
								"MEAN_ANOMALY": 167.39
							},
							"tleParameters": {
								"EPHEMERIS_TYPE": 0,
								"CLASSIFICATION_TYPE": "U",
								"NORAD_CAT_ID": 58228,
								"ELEMENT_SET_NO": 999,
								"REV_AT_EPOCH": 273,
								"BSTAR": -0.019013,
								"MEAN_MOTION_DOT": -0.01637852,
								"MEAN_MOTION_DDOT": 0
							}
						}
					}
				}
			},
			{
				"header": {
					"CREATION_DATE": "",
					"ORIGINATOR": ""
				},
				"body": {
					"segment": {
						"metadata": {
							"OBJECT_NAME": "STARLINK-30861",
							"OBJECT_ID": "2023-171A",
							"CENTER_NAME": "EARTH",
							"REF_FRAME": "TEME",
							"TIME_SYSTEM": "UTC",
							"MEAN_ELEMENT_THEORY": "SGP4"
						},
						"data": {
							"meanElements": {
								"EPOCH": "2023-11-21T04:00:00.999936",
								"MEAN_MOTION": 15.74152106,
								"ECCENTRICITY": 0.0001859,
								"INCLINATION": 43.0023,
								"RA_OF_ASC_NODE": 180.9179,
								"ARG_OF_PERICENTER": 276.7023,
								"MEAN_ANOMALY": 130.0565
							},
							"tleParameters": {
								"EPHEMERIS_TYPE": 0,
								"CLASSIFICATION_TYPE": "U",
								"NORAD_CAT_ID": 58230,
								"ELEMENT_SET_NO": 999,
								"REV_AT_EPOCH": 330,
								"BSTAR": -0.011635,
								"MEAN_MOTION_DOT": -0.01510114,
								"MEAN_MOTION_DDOT": 0
							}
						}
					}
				}
			},
			{
				"header": {
					"CREATION_DATE": "",
					"ORIGINATOR": ""
				},
				"body": {
					"segment": {
						"metadata": {
							"OBJECT_NAME": "STARLINK-30867",
							"OBJECT_ID": "2023-171B",
							"CENTER_NAME": "EARTH",
							"REF_FRAME": "TEME",
							"TIME_SYSTEM": "UTC",
							"MEAN_ELEMENT_THEORY": "SGP4"
						},
						"data": {
							"meanElements": {
								"EPOCH": "2023-11-21T04:00:00.999936",
								"MEAN_MOTION": 15.74148167,
								"ECCENTRICITY": 0.0001827,
								"INCLINATION": 43.0025,
								"RA_OF_ASC_NODE": 180.9162,
								"ARG_OF_PERICENTER": 277.5075,
								"MEAN_ANOMALY": 129.8776
							},
							"tleParameters": {
								"EPHEMERIS_TYPE": 0,
								"CLASSIFICATION_TYPE": "U",
								"NORAD_CAT_ID": 58231,
								"ELEMENT_SET_NO": 999,
								"REV_AT_EPOCH": 330,
								"BSTAR": -0.011606,
								"MEAN_MOTION_DOT": -0.01506565,
								"MEAN_MOTION_DDOT": 0
							}
						}
					}
				}
			},
			{
				"header": {
					"CREATION_DATE": "",
					"ORIGINATOR": ""
				},
				"body": {
					"segment": {
						"metadata": {
							"OBJECT_NAME": "STARLINK-30880",
							"OBJECT_ID": "2023-171C",
							"CENTER_NAME": "EARTH",
							"REF_FRAME": "TEME",
							"TIME_SYSTEM": "UTC",
							"MEAN_ELEMENT_THEORY": "SGP4"
						},
						"data": {
							"meanElements": {
								"EPOCH": "2023-11-21T04:00:00.999936",
								"MEAN_MOTION": 15.74141198,
								"ECCENTRICITY": 0.0001485,
								"INCLINATION": 43.0022,
								"RA_OF_ASC_NODE": 180.9142,
								"ARG_OF_PERICENTER": 279.964,
								"MEAN_ANOMALY": 128.0482
							},
							"tleParameters": {
								"EPHEMERIS_TYPE": 0,
								"CLASSIFICATION_TYPE": "U",
								"NORAD_CAT_ID": 58232,
								"ELEMENT_SET_NO": 999,
								"REV_AT_EPOCH": 324,
								"BSTAR": -0.011544,
								"MEAN_MOTION_DOT": -0.01498873,
								"MEAN_MOTION_DDOT": 0
							}
						}
					}
				}
			},
			{
				"header": {
					"CREATION_DATE": "",
					"ORIGINATOR": ""
				},
				"body": {
					"segment": {
						"metadata": {
							"OBJECT_NAME": "STARLINK-30777",
							"OBJECT_ID": "2023-171D",
							"CENTER_NAME": "EARTH",
							"REF_FRAME": "TEME",
							"TIME_SYSTEM": "UTC",
							"MEAN_ELEMENT_THEORY": "SGP4"
						},
						"data": {
							"meanElements": {
								"EPOCH": "2023-11-20T22:00:00.999936",
								"MEAN_MOTION": 15.74102366,
								"ECCENTRICITY": 0.000186,
								"INCLINATION": 43.0022,
								"RA_OF_ASC_NODE": 182.4266,
								"ARG_OF_PERICENTER": 279.594,
								"MEAN_ANOMALY": 151.425
							},
							"tleParameters": {
								"EPHEMERIS_TYPE": 0,
								"CLASSIFICATION_TYPE": "U",
								"NORAD_CAT_ID": 58233,
								"ELEMENT_SET_NO": 999,
								"REV_AT_EPOCH": 321,
								"BSTAR": -0.0038426,
								"MEAN_MOTION_DOT": -0.00532754,
								"MEAN_MOTION_DDOT": 0
							}
						}
					}
				}
			},
			{
				"header": {
					"CREATION_DATE": "",
					"ORIGINATOR": ""
				},
				"body": {
					"segment": {
						"metadata": {
							"OBJECT_NAME": "STARLINK-30860",
							"OBJECT_ID": "2023-171E",
							"CENTER_NAME": "EARTH",
							"REF_FRAME": "TEME",
							"TIME_SYSTEM": "UTC",
							"MEAN_ELEMENT_THEORY": "SGP4"
						},
						"data": {
							"meanElements": {
								"EPOCH": "2023-11-21T04:00:00.999936",
								"MEAN_MOTION": 15.74144834,
								"ECCENTRICITY": 0.000123,
								"INCLINATION": 43.0021,
								"RA_OF_ASC_NODE": 180.9127,
								"ARG_OF_PERICENTER": 290.5307,
								"MEAN_ANOMALY": 118.1028
							},
							"tleParameters": {
								"EPHEMERIS_TYPE": 0,
								"CLASSIFICATION_TYPE": "U",
								"NORAD_CAT_ID": 58234,
								"ELEMENT_SET_NO": 999,
								"REV_AT_EPOCH": 330,
								"BSTAR": -0.011588,
								"MEAN_MOTION_DOT": -0.01503923,
								"MEAN_MOTION_DDOT": 0
							}
						}
					}
				}
			}
		]
	}
}